LEMUR-2-DEMBITZ         
1 42842U 17042T   26068.47492167  .00020231  00000+0  76561-3 0  9991
2 42842  97.3807 250.9241 0006961  17.1421 343.0051 15.26947128473114
STARLINK-31095          
1 58683U 23211S   26068.44516249 -.00004107  00000+0 -13971-3 0  9993
2 58683  43.0059  86.9674 0002186 291.6017  68.4602 15.27598880123696
